SENTINEL-6A             
1 46984U 20086A   26186.12102496 -.00000034  00000+0  11644-3 0  9991
2 46984  66.0415  97.8050 0007833 270.0452  89.9666 12.80930091262620
SENTINEL-6B             
1 66514U 25264A   26186.12137287 -.00000032  00000+0  12398-3 0  9996
2 66514  66.0414  97.9303 0007903 268.8997  91.1113 12.80930111 29467
