{"fetched_at":"2026-07-06T08:47:19.709Z","source":"https://celestrak.org/NORAD/elements/gp.php?NAME=SENTINEL&FORMAT=JSON","constellation":"sentinel-6","records":[{"OBJECT_NAME":"SENTINEL-6A","OBJECT_ID":"2020-086A","EPOCH":"2026-07-05T02:54:16.555680","CLASSIFICATION_TYPE":"U","MEAN_MOTION":12.80930091,"ECCENTRICITY":0.0007834,"INCLINATION":66.0415,"RA_OF_ASC_NODE":97.805,"ARG_OF_PERICENTER":270.0452,"MEAN_ANOMALY":89.9666,"EPHEMERIS_TYPE":0,"NORAD_CAT_ID":46984,"ELEMENT_SET_NO":999,"REV_AT_EPOCH":26262,"BSTAR":0.00011644,"MEAN_MOTION_DOT":-3.4e-7,"MEAN_MOTION_DDOT":0},{"OBJECT_NAME":"SENTINEL-6B","OBJECT_ID":"2025-264A","EPOCH":"2026-07-05T02:54:46.615104","CLASSIFICATION_TYPE":"U","MEAN_MOTION":12.8093011,"ECCENTRICITY":0.0007904,"INCLINATION":66.0414,"RA_OF_ASC_NODE":97.9303,"ARG_OF_PERICENTER":268.8997,"MEAN_ANOMALY":91.1113,"EPHEMERIS_TYPE":0,"NORAD_CAT_ID":66514,"ELEMENT_SET_NO":999,"REV_AT_EPOCH":2946,"BSTAR":0.00012398,"MEAN_MOTION_DOT":-3.2e-7,"MEAN_MOTION_DDOT":0}]}
